satname,norad_id,inclination_deg,eccentricity,mean_motion_rev_per_day,perigee_km,apogee_km,l1,l2
STARLINK-1234,45190,53.0335,0.0001546,15.81588931,324.9102842597831,326.9831869508316,1 45190U 20012N   26176.91668980  .00098610  00000+0  48122-3 0  9996,2 45190  53.0335 149.9368 0001546 107.0659 235.8262 15.81588931  5994
STARLINK-1269,45197,53.1546,0.0002382,15.36488573,454.87458284513286,458.13060514771314,1 45197U 20012V   26176.62169859  .00040761  00000+0  11329-2 0  9994,2 45197  53.1546 256.5357 0002382 344.1686  15.9242 15.36488573351464
STARLINK-1154,45198,53.0397,0.0004113,15.65105058,370.1599144728043,375.71334764171115,1 45198U 20012W   26176.48199082  .00048564  00000+0  48583-3 0  9992,2 45198  53.0397 208.2002 0004113  31.7653 328.3609 15.65105058352078
STARLINK-1199,45201,53.1546,0.0004694,15.36467495,453.356891935784,459.7733102682987,1 45201U 20012Z   26176.39758255  .00040328  00000+0  11216-2 0  9992,2 45201  53.1546 241.8547 0004694 343.9685  16.1169 15.36467495351676
STARLINK-1209,45206,53.0358,0.000147,15.72294867,351.3506060441614,353.3293662780916,1 45206U 20012AE  26176.91668980  .00114825  00000+0  84310-3 0  9990,2 45206  53.0358 165.8463 0001470 106.9832 243.8802 15.72294867  5910
STARLINK-1231,45212,53.0359,0.0002309,15.28911733,477.4809753557756,480.64763091756413,1 45212U 20012AL  26176.46577215  .00027069  00000+0  95981-3 0  9996,2 45212  53.0359 237.5176 0002309  65.6732 294.4508 15.28911733351679
STARLINK-1271,45217,53.1553,0.0004264,15.36655992,453.09208270437193,458.9202399923706,1 45217U 20012AR  26176.58813109  .00041394  00000+0  11439-2 0  9991,2 45217  53.1553 241.0600 0004264 351.4445   8.6485 15.36655992351706
STARLINK-1191,45222,53.1523,0.0003504,15.4077119,441.4415860680956,446.2224219461041,1 45222U 20012AW  26176.52138288  .00048559  00000+0  11709-2 0  9999,2 45222  53.1523 213.8588 0003504 328.3916  31.6878 15.40771190352081
STARLINK-1212,45223,53.0377,0.0001572,15.71098626,354.6973934890866,356.81452943617023,1 45223U 20012AX  26176.85931014  .00065364  00000+0  50975-3 0  9996,2 45223  53.0377 181.5915 0001572  89.4199 270.6998 15.71098626352543
STARLINK-1215,45225,53.1542,0.0005236,15.36788784,452.03431793810705,459.1906203822109,1 45225U 20012AZ  26176.52076772  .00039363  00000+0  10838-2 0  9996,2 45225  53.1542 215.6237 0005236 351.3744   8.7169 15.36788784352018
STARLINK-1221,45227,53.0625,0.0003463,15.4541768,427.7933683881229,432.5087887113259,1 45227U 20012BB  26176.83586133  .00036775  00000+0  76189-3 0  9995,2 45227  53.0625 115.7442 0003463  20.9095 339.2052 15.45417680353419
STARLINK-1222,45228,53.0506,0.0003719,15.56441115,395.4466855702676,400.4867515161195,1 45228U 20012BC  26176.29587833  .00035720  00000+0  50069-3 0  9992,2 45228  53.0506 184.2875 0003719  47.6664 312.4661 15.56441115352343
STARLINK-1226,45229,53.1536,0.0005426,15.45977677,424.8135908381055,432.2001607721277,1 45229U 20012BD  26176.38156657  .00051439  00000+0  10399-2 0  9995,2 45229  53.1536 211.1879 0005426 351.5802   8.5113 15.45977677352003
STARLINK-1227,45230,53.1512,0.0005141,15.4608418,424.69515061738184,431.69342044516543,1 45230U 20012BE  26176.51958421  .00063781  00000+0  12806-2 0  9999,2 45230  53.1512 210.6234 0005141 343.1688  16.9148 15.46084180352146
STARLINK-1246,45235,53.1544,0.0004138,15.3665937,453.16818149790015,458.82411008935924,1 45235U 20012BK  26176.62770942  .00017838  00000+0  50049-3 0  9990,2 45235  53.1544 256.1310 0004138 314.9663  45.1005 15.36659370351525
STARLINK-1270,45237,53.037,0.0001625,15.70199695,357.2311197724357,359.42047018080393,1 45237U 20012BM  26176.91668980  .00032076  00000+0  26318-3 0  9995,2 45237  53.0370 183.1110 0001625 101.0849 296.3141 15.70199695  5950
STARLINK-1279,45360,53.0345,0.0002165,15.82416788,322.15739865856176,325.05925438494523,1 45360U 20019A   26176.81666372  .00136936  00000+0  63886-3 0  9992,2 45360  53.0345 285.0127 0002165 352.0867   8.0121 15.82416788347646
STARLINK-1301,45361,53.0334,0.000387,15.84005821,316.53372637553366,321.717407602383,1 45361U 20019B   26176.68899219  .00138327  00000+0  59852-3 0  9990,2 45361  53.0334 287.7905 0003870 347.4836  12.6090 15.84005821347602
STARLINK-1262,45366,53.154,0.0003397,15.35583175,456.86621336039934,461.5114925448961,1 45366U 20019G   26176.80562271  .00045233  00000+0  12921-2 0  9992,2 45366  53.1540  21.8716 0003397 149.0906 211.0298 15.35583175346324
STARLINK-1273,45367,53.0434,0.00021,15.5942703,387.89308862648613,390.7354181529099,1 45367U 20019H   26176.71408968  .00084843  00000+0  10486-2 0  9999,2 45367  53.0434 354.7873 0002100 128.3502 231.7699 15.59427030346676
STARLINK-1277,45369,53.0411,6.19e-05,15.68822621,361.8500552931355,362.6845173437805,1 45369U 20019K   26176.70356109  .00067099  00000+0  57478-3 0  9996,2 45369  53.0411 347.8182 0000619  63.7991 296.3089 15.68822621346772
STARLINK-1281,45370,53.1532,0.0003198,15.36389326,454.6111129810197,458.98273671935385,1 45370U 20019L   26176.80731367  .00028975  00000+0  81220-3 0  9994,2 45370  53.1532  21.3869 0003198 138.9948 221.1296 15.36389326346330
STARLINK-1300,45374,53.1587,0.0003349,15.36982038,452.75119400958283,457.32805571291465,1 45374U 20019Q   26176.81292419  .00045948  00000+0  12547-2 0  9993,2 45374  53.1587  21.2002 0003349 141.2787 218.8457 15.36982038346339
STARLINK-1302,45375,53.0459,0.0003084,15.69105899,359.3775203580135,363.5345013271017,1 45375U 20019R   26176.67617875  .00065515  00000+0  55486-3 0  9997,2 45375  53.0459 343.7743 0003084 117.0065 243.1267 15.69105899346829
STARLINK-1304,45376,53.0426,0.0002414,15.65105221,371.3064532627359,374.5658713855046,1 45376U 20019S   26176.72463449  .00054673  00000+0  54597-3 0  9995,2 45376  53.0426 345.3814 0002414 149.1372 210.9784 15.65105221346803
STARLINK-1305,45377,53.0385,0.000404,15.73804735,345.3172259489693,350.7519726011842,1 45377U 20019T   26176.70807027  .00062617  00000+0  43560-3 0  9993,2 45377  53.0385 322.8714 0004040 313.1112  46.9568 15.73804735347127
STARLINK-1319,45379,53.0365,7.52e-05,15.80751812,327.80905684237496,328.81770697981483,1 45379U 20019V   26176.85717508  .00113201  00000+0  57268-3 0  9991,2 45379  53.0365 312.9830 0000752  26.9290 333.1770 15.80751812347275
STARLINK-1266,45383,53.0451,0.0001479,15.67490757,365.0873954553381,367.0823362832625,1 45383U 20019Z   26176.64819487  .00056851  00000+0  51560-3 0  9998,2 45383  53.0451 330.3858 0001479 308.9218  51.1665 15.67490757347004
STARLINK-1267,45384,53.0428,0.0001168,15.71666544,353.34735030652337,354.9200087372592,1 45384U 20019AA  26176.91668980  .00016351  00000+0  12870-3 0  9991,2 45384  53.0428 320.1988 0001168  74.7458 224.8392 15.71666544  5808
STARLINK-1272,45386,53.0378,0.0001444,15.76188325,340.2815095246233,342.22206900696256,1 45386U 20019AC  26176.91668980 -.00010101  00000+0 -59203-4 0  9994,2 45386  53.0378 298.4055 0001444  60.9523  35.3121 15.76188325  5977
STARLINK-1274,45387,53.0181,0.0005044,15.64978705,369.89457941037836,376.70542906025094,1 45387U 20019AD  26176.76419001  .00136246  00000+0  13452-2 0  9997,2 45387  53.0181 299.3967 0005044 236.7713 123.2818 15.64978705347443
STARLINK-1280,45388,53.0348,0.0003438,15.86493106,309.8236993110768,314.42392264470436,1 45388U 20019AE  26176.61225826  .00164041  00000+0  62743-3 0  9994,2 45388  53.0348 305.8096 0003438 344.1404  15.9511 15.86493106347337
STARLINK-1283,45389,53.0377,0.0002053,15.7378201,346.7184522342868,349.4802448790033,1 45389U 20019AF  26176.71337507  .00073782  00000+0  51246-3 0  9993,2 45389  53.0377 298.3478 0002053 281.3841  78.6946 15.73782010347462
STARLINK-1284,45390,53.0402,0.0003144,15.72030658,350.97778723802367,355.2103853450835,1 45390U 20019AG  26176.68694082  .00076378  00000+0  57115-3 0  9990,2 45390  53.0402 322.5923 0003144  59.7474 300.3854 15.72030658347117
STARLINK-1297,45395,53.0403,0.0001018,15.74851213,344.3701845292908,345.73902634015667,1 45395U 20019AM  26176.91668980 -.00004887  00000+0 -28220-4 0  9993,2 45395  53.0403 320.5370 0001018  39.9776  74.8405 15.74851213  5970
STARLINK-1307,45397,53.0524,4.56e-05,15.5788975,393.4566713079457,394.0742688132141,1 45397U 20019AP  26176.84821691  .00038468  00000+0  51035-3 0  9996,2 45397  53.0524 328.5543 0000456 229.2308 130.8664 15.57889750346871
STARLINK-1255,45399,53.0333,0.0001748,15.67429805,365.08078405206106,367.4386251399874,1 45399U 20019AR  26176.58917375  .00057094  00000+0  51904-3 0  9995,2 45399  53.0333 296.4334 0001748 175.8271 184.2759 15.67429805347288
STARLINK-1260,45404,53.1539,0.0003378,15.39524026,445.21010624756127,449.82151728719145,1 45404U 20019AW  26176.68436686  .00055385  00000+0  13888-2 0  9993,2 45404  53.1539 344.2838 0003378 154.8744 205.2426 15.39524026346552
STARLINK-1263,45405,53.1571,0.0002308,15.36614802,454.55094159641703,457.70563845429206,1 45405U 20019AX  26176.68908069  .00053166  00000+0  14661-2 0  9998,2 45405  53.1571 345.8986 0002308 179.5996 180.5010 15.36614802346536
STARLINK-1265,45406,53.1555,0.000187,15.39921943,445.0637480222431,447.6161023922705,1 45406U 20019AY  26176.67283567  .00057768  00000+0  14290-2 0  9997,2 45406  53.1555 344.2828 0001870 143.0000 217.1134 15.39921943346558
STARLINK-1278,45408,53.0394,0.0001623,15.75793253,341.28409576774266,343.4655739093314,1 45408U 20019BA  26176.91668980  .00123820  00000+0  78090-3 0  9994,2 45408  53.0394 319.3294 0001623  50.1210 342.2457 15.75793253  6021
STARLINK-1296,45412,53.1558,0.00027,15.40125137,443.89721418627505,447.5821075831527,1 45412U 20019BE  26176.84005638  .00052194  00000+0  12844-2 0  9995,2 45412  53.1558 343.1607 0002700 134.0126 226.1102 15.40125137346584
STARLINK-1309,45414,53.0587,0.0001343,15.74471949,345.2311621908193,347.0373014436864,1 45414U 20019BG  26176.91668980 -.00007671  00000+0 -47515-4 0  9997,2 45414  53.0587 313.4681 0001343  53.4964 149.1783 15.74471949  6017
